{
  "type": "FeatureCollection",
  "features": [
    {
      "type": "Feature",
      "properties": {
        "norad_id": 37978,
        "name": "COSMOS 2251 DEB",
        "group": "cosmos-2251-debris",
        "lat": -73.94757606898366,
        "lon": 18.62558480620527,
        "alt_km": 349.34990061368717,
        "timestamp": "2025-12-06T11:28:11.460192+00:00",
        "meta_object_name": "COSMOS 2251 DEB",
        "meta_object_id": "1993-036BQD",
        "meta_epoch": "2025-11-19T05:08:53.100672",
        "meta_mean_motion": 15.61137081,
        "meta_eccentricity": 0.00148985,
        "meta_inclination": 74.0238,
        "meta_ra_of_asc_node": 142.2198,
        "meta_arg_of_pericenter": 140.9849,
        "meta_mean_anomaly": 219.2448,
        "meta_ephemeris_type": 0,
        "meta_classification_type": "U",
        "meta_norad_cat_id": 37978,
        "meta_element_set_no": 999,
        "meta_rev_at_epoch": 8032,
        "meta_bstar": 0.0043958825,
        "meta_mean_motion_dot": 0.0039117,
        "meta_mean_motion_ddot": 0,
        "tle_line1": "1 37978U 93036BQD 25323.21450348  .00391170  00000+0  43959-2 0  9999",
        "tle_line2": "2 37978  74.0238 142.2198 0014898 140.9849 219.2448 15.61137081 80328"
      },
      "geometry": {
        "type": "Point",
        "coordinates": [
          18.62558480620527,
          -73.94757606898366
        ]
      }
    },
    {
      "type": "Feature",
      "properties": {
        "norad_id": 37985,
        "name": "COSMOS 2251 DEB",
        "group": "cosmos-2251-debris",
        "lat": -71.92199290423181,
        "lon": -144.11714593833796,
        "alt_km": 788.4788382541155,
        "timestamp": "2025-12-06T11:28:11.460202+00:00",
        "meta_object_name": "COSMOS 2251 DEB",
        "meta_object_id": "1993-036BQL",
        "meta_epoch": "2025-12-05T12:25:56.322336",
        "meta_mean_motion": 14.35479153,
        "meta_eccentricity": 0.00205449,
        "meta_inclination": 74.0253,
        "meta_ra_of_asc_node": 278.9914,
        "meta_arg_of_pericenter": 43.9287,
        "meta_mean_anomaly": 316.3494,
        "meta_ephemeris_type": 0,
        "meta_classification_type": "U",
        "meta_norad_cat_id": 37985,
        "meta_element_set_no": 999,
        "meta_rev_at_epoch": 64813,
        "meta_bstar": 0.00010256916,
        "meta_mean_motion_dot": 2.69e-06,
        "meta_mean_motion_ddot": 0,
        "tle_line1": "1 37985U 93036BQL 25339.51801299  .00000269  00000+0  10257-3 0  9994",
        "tle_line2": "2 37985  74.0253 278.9914 0020544  43.9287 316.3494 14.35479153648137"
      },
      "geometry": {
        "type": "Point",
        "coordinates": [
          -144.11714593833796,
          -71.92199290423181
        ]
      }
    },
    {
      "type": "Feature",
      "properties": {
        "norad_id": 37988,
        "name": "COSMOS 2251 DEB",
        "group": "cosmos-2251-debris",
        "lat": -64.24268389826555,
        "lon": -107.5618509693621,
        "alt_km": 716.1629811883968,
        "timestamp": "2025-12-06T11:28:11.460212+00:00",
        "meta_object_name": "COSMOS 2251 DEB",
        "meta_object_id": "1993-036BQP",
        "meta_epoch": "2025-12-03T03:52:26.933376",
        "meta_mean_motion": 14.68713906,
        "meta_eccentricity": 0.00633293,
        "meta_inclination": 74.0639,
        "meta_ra_of_asc_node": 42.5299,
        "meta_arg_of_pericenter": 83.2268,
        "meta_mean_anomaly": 277.6103,
        "meta_ephemeris_type": 0,
        "meta_classification_type": "U",
        "meta_norad_cat_id": 37988,
        "meta_element_set_no": 999,
        "meta_rev_at_epoch": 23255,
        "meta_bstar": 0.001359236,
        "meta_mean_motion_dot": 8.141e-05,
        "meta_mean_motion_ddot": 0,
        "tle_line1": "1 37988U 93036BQP 25337.16142284  .00008141  00000+0  13592-2 0  9999",
        "tle_line2": "2 37988  74.0639  42.5299 0063329  83.2268 277.6103 14.68713906232557"
      },
      "geometry": {
        "type": "Point",
        "coordinates": [
          -107.5618509693621,
          -64.24268389826555
        ]
      }
    },
    {
      "type": "Feature",
      "properties": {
        "norad_id": 37993,
        "name": "COSMOS 2251 DEB",
        "group": "cosmos-2251-debris",
        "lat": -46.31144880902751,
        "lon": 16.325248035051658,
        "alt_km": 688.2364078604614,
        "timestamp": "2025-12-06T11:28:11.460222+00:00",
        "meta_object_name": "COSMOS 2251 DEB",
        "meta_object_id": "1993-036BQU",
        "meta_epoch": "2025-12-03T19:55:21.764064",
        "meta_mean_motion": 14.59748626,
        "meta_eccentricity": 0.00218643,
        "meta_inclination": 74.0235,
        "meta_ra_of_asc_node": 183.9251,
        "meta_arg_of_pericenter": 273.6547,
        "meta_mean_anomaly": 86.2118,
        "meta_ephemeris_type": 0,
        "meta_classification_type": "U",
        "meta_norad_cat_id": 37993,
        "meta_element_set_no": 999,
        "meta_rev_at_epoch": 65187,
        "meta_bstar": 0.0022910126,
        "meta_mean_motion_dot": 0.00010959,
        "meta_mean_motion_ddot": 0,
        "tle_line1": "1 37993U 93036BQU 25337.83011301  .00010959  00000+0  22910-2 0  9998",
        "tle_line2": "2 37993  74.0235 183.9251 0021864 273.6547  86.2118 14.59748626651873"
      },
      "geometry": {
        "type": "Point",
        "coordinates": [
          16.325248035051658,
          -46.31144880902751
        ]
      }
    },
    {
      "type": "Feature",
      "properties": {
        "norad_id": 37994,
        "name": "COSMOS 2251 DEB",
        "group": "cosmos-2251-debris",
        "lat": 49.541141222227985,
        "lon": -53.13621318784028,
        "alt_km": 743.4222567217448,
        "timestamp": "2025-12-06T11:28:11.460232+00:00",
        "meta_object_name": "COSMOS 2251 DEB",
        "meta_object_id": "1993-036BQV",
        "meta_epoch": "2025-12-05T21:53:10.638816",
        "meta_mean_motion": 14.39597104,
        "meta_eccentricity": 0.00226036,
        "meta_inclination": 74.0359,
        "meta_ra_of_asc_node": 288.2966,
        "meta_arg_of_pericenter": 9.1356,
        "meta_mean_anomaly": 351.0206,
        "meta_ephemeris_type": 0,
        "meta_classification_type": "U",
        "meta_norad_cat_id": 37994,
        "meta_element_set_no": 999,
        "meta_rev_at_epoch": 76966,
        "meta_bstar": 0.00066966416,
        "meta_mean_motion_dot": 2.072e-05,
        "meta_mean_motion_ddot": 0,
        "tle_line1": "1 37994U 93036BQV 25339.91192869  .00002072  00000+0  66966-3 0  9996",
        "tle_line2": "2 37994  74.0359 288.2966 0022603   9.1356 351.0206 14.39597104769664"
      },
      "geometry": {
        "type": "Point",
        "coordinates": [
          -53.13621318784028,
          49.541141222227985
        ]
      }
    },
    {
      "type": "Feature",
      "properties": {
        "norad_id": 37996,
        "name": "COSMOS 2251 DEB",
        "group": "cosmos-2251-debris",
        "lat": -68.30002577935022,
        "lon": 80.09091780488427,
        "alt_km": 809.9189283061169,
        "timestamp": "2025-12-06T11:28:11.460242+00:00",
        "meta_object_name": "COSMOS 2251 DEB",
        "meta_object_id": "1993-036BQX",
        "meta_epoch": "2025-11-16T18:35:00.708864",
        "meta_mean_motion": 14.09591608,
        "meta_eccentricity": 0.02219827,
        "meta_inclination": 74.0658,
        "meta_ra_of_asc_node": 248.8308,
        "meta_arg_of_pericenter": 5.4709,
        "meta_mean_anomaly": 354.8776,
        "meta_ephemeris_type": 0,
        "meta_classification_type": "U",
        "meta_norad_cat_id": 37996,
        "meta_element_set_no": 999,
        "meta_rev_at_epoch": 55769,
        "meta_bstar": 0.0096790999,
        "meta_mean_motion_dot": 0.00021331,
        "meta_mean_motion_ddot": 0,
        "tle_line1": "1 37996U 93036BQX 25320.77431376  .00021331  00000+0  96791-2 0  9998",
        "tle_line2": "2 37996  74.0658 248.8308 0221982   5.4709 354.8776 14.09591608557693"
      },
      "geometry": {
        "type": "Point",
        "coordinates": [
          80.09091780488427,
          -68.30002577935022
        ]
      }
    },
    {
      "type": "Feature",
      "properties": {
        "norad_id": 37998,
        "name": "COSMOS 2251 DEB",
        "group": "cosmos-2251-debris",
        "lat": -2.4704366668956452,
        "lon": 67.48369915643394,
        "alt_km": 754.2120069346383,
        "timestamp": "2025-12-06T11:28:11.460252+00:00",
        "meta_object_name": "COSMOS 2251 DEB",
        "meta_object_id": "1993-036BQZ",
        "meta_epoch": "2025-11-29T12:31:01.771392",
        "meta_mean_motion": 14.45395467,
        "meta_eccentricity": 0.00197878,
        "meta_inclination": 74.0369,
        "meta_ra_of_asc_node": 259.7366,
        "meta_arg_of_pericenter": 336.2714,
        "meta_mean_anomaly": 23.753,
        "meta_ephemeris_type": 0,
        "meta_classification_type": "U",
        "meta_norad_cat_id": 37998,
        "meta_element_set_no": 999,
        "meta_rev_at_epoch": 64096,
        "meta_bstar": 0.00059073677,
        "meta_mean_motion_dot": 2.057e-05,
        "meta_mean_motion_ddot": 0,
        "tle_line1": "1 37998U 93036BQZ 25333.52154828  .00002057  00000+0  59074-3 0  9999",
        "tle_line2": "2 37998  74.0369 259.7366 0019787 336.2714  23.7530 14.45395467640966"
      },
      "geometry": {
        "type": "Point",
        "coordinates": [
          67.48369915643394,
          -2.4704366668956452
        ]
      }
    }
  ]
}